OBJECT_NAME,OBJECT_ID,EPOCH,MEAN_MOTION,ECCENTRICITY,INCLINATION,RA_OF_ASC_NODE,ARG_OF_PERICENTER,MEAN_ANOMALY,EPHEMERIS_TYPE,CLASSIFICATION_TYPE,NORAD_CAT_ID,ELEMENT_SET_NO,REV_AT_EPOCH,BSTAR,MEAN_MOTION_DOT,MEAN_MOTION_DDOT
TIANMU-1 21,2023-208C,2026-07-07T12:25:52.603680,15.35454649,.000604,97.4517,308.3537,234.5801,125.4879,0,U,58662,999,14068,.19572E-3,.6662E-4,0
TIANMU-1 22,2023-208D,2026-07-07T11:05:25.744992,15.31352448,.0002265,97.4511,304.7900,259.4603,100.6383,0,U,58663,999,14043,.18125E-3,.5409E-4,0
TIANMU-1 15,2024-004A,2026-07-07T13:05:07.403712,15.26860434,.0005672,97.4675,14.7359,262.2147,97.8448,0,U,58700,999,13888,.14325E-3,.3706E-4,0
TIANMU-1 16,2024-004B,2026-07-07T12:50:41.915040,15.26962772,.0004314,97.4622,13.9467,282.9546,77.1210,0,U,58701,999,13888,.13872E-3,.3597E-4,0
TIANMU-1 17,2024-004C,2026-07-07T12:29:46.716576,15.26961143,.0003885,97.4649,14.4246,290.6269,69.4553,0,U,58702,999,13887,.14822E-3,.3848E-4,0
TIANMU-1 18,2024-004D,2026-07-07T13:29:06.305856,15.26878415,.0003381,97.4667,14.7277,262.5514,97.5341,0,U,58703,999,13888,.13921E-3,.3601E-4,0
INSAT-3DS,2024-033A,2026-07-07T12:25:30.234720,1.00272461,.00011,0.0823,95.5360,20.5841,77.8078,0,U,58990,999,4727,0,-.141E-5,0
METEOR-M2 4,2024-039A,2026-07-07T12:17:39.733152,14.22431618,.0008167,98.7020,147.5558,107.8475,252.3594,0,U,59051,999,12215,.24254E-4,.1E-6,0
GOES 19,2024-119A,2026-07-07T11:00:56.963232,1.00271827,.0000459,0.0318,233.8367,310.0036,191.6310,0,U,60133,999,716,0,-.233E-5,0
MTG-S1,2025-143A,2026-07-07T03:28:45.801120,1.00272511,.0003251,0.5891,343.1246,262.1294,91.6064,0,U,64723,999,361,0,.7E-7,0
METOP-SGA1,2025-172A,2026-07-07T03:41:05.537184,14.19818296,.0007515,98.6633,247.4590,356.5024,3.6098,0,U,65159,999,4662,.28532E-4,.17E-6,0
FENGYUN 3H,2025-219A,2026-07-07T06:21:21.991968,14.19923971,.0001313,98.6771,128.6439,64.3708,295.7604,0,U,65815,999,4023,.39101E-4,.4E-6,0
