TIANMU-1 21             
1 58662U 23208C   26188.51796995  .00006662  00000+0  19572-3 0  9994
2 58662  97.4517 308.3537 0006040 234.5801 125.4879 15.35454649140685
TIANMU-1 22             
1 58663U 23208D   26188.46210353  .00005409  00000+0  18125-3 0  9999
2 58663  97.4511 304.7900 0002265 259.4603 100.6383 15.31352448140433
TIANMU-1 15             
1 58700U 24004A   26188.54522458  .00003706  00000+0  14325-3 0  9993
2 58700  97.4675  14.7359 0005672 262.2147  97.8448 15.26860434138880
TIANMU-1 16             
1 58701U 24004B   26188.53520735  .00003597  00000+0  13872-3 0  9993
2 58701  97.4622  13.9467 0004314 282.9546  77.1210 15.26962772138884
TIANMU-1 17             
1 58702U 24004C   26188.52067959  .00003848  00000+0  14822-3 0  9992
2 58702  97.4649  14.4246 0003885 290.6269  69.4553 15.26961143138879
TIANMU-1 18             
1 58703U 24004D   26188.56187854  .00003601  00000+0  13921-3 0  9990
2 58703  97.4667  14.7277 0003381 262.5514  97.5341 15.26878415138886
INSAT-3DS               
1 58990U 24033A   26188.51771105 -.00000141  00000+0  00000+0 0  9990
2 58990   0.0823  95.5360 0001100  20.5841  77.8078  1.00272461 47276
METEOR-M2 4             
1 59051U 24039A   26188.51226543  .00000010  00000+0  24254-4 0  9992
2 59051  98.7020 147.5558 0008167 107.8475 252.3594 14.22431618122150
GOES 19                 
1 60133U 24119A   26188.45899263 -.00000233  00000+0  00000+0 0  9998
2 60133   0.0318 233.8367 0000459 310.0036 191.6310  1.00271827  7163
MTG-S1                  
1 64723U 25143A   26188.14497455  .00000007  00000+0  00000+0 0  9996
2 64723   0.5891 343.1246 0003251 262.1294  91.6064  1.00272511  3612
METOP-SGA1              
1 65159U 25172A   26188.15353631  .00000017  00000+0  28532-4 0  9996
2 65159  98.6633 247.4590 0007515 356.5024   3.6098 14.19818296 46620
FENGYUN 3H              
1 65815U 25219A   26188.26483787  .00000040  00000+0  39101-4 0  9995
2 65815  98.6771 128.6439 0001313  64.3708 295.7604 14.19923971 40232
